{"type":"FeatureCollection","features":[{"type":"Feature","geometry":{"type":"Polygon","coordinates":[[[-121.541,48.059],[-121.566,48.058],[-121.589,48.034],[-121.619,48.032],[-121.616,48.016],[-121.624,48.012],[-121.625,48.001],[-121.669,48.0],[-121.675,47.985],[-121.708,47.976],[-121.773,47.99],[-121.809,47.983],[-121.834,47.994],[-121.835,47.988],[-121.851,47.988],[-121.866,47.977],[-121.874,47.992],[-121.893,47.997],[-121.897,48.006],[-121.923,48.009],[-121.924,48.02],[-121.933,48.026],[-121.946,48.032],[-121.96,48.027],[-121.969,48.034],[-121.97,48.027],[-121.991,48.011],[-121.982,47.989],[-121.986,47.974],[-122.004,47.971],[-122.006,47.96],[-121.999,47.952],[-121.986,47.957],[-121.95,47.925],[-121.954,47.918],[-121.948,47.91],[-121.957,47.909],[-121.964,47.896],[-121.959,47.883],[-121.967,47.876],[-121.959,47.868],[-121.968,47.856],[-121.995,47.849],[-122.011,47.829],[-122.02,47.83],[-122.034,47.822],[-121.972,47.823],[-121.953,47.814],[-121.932,47.82],[-121.901,47.8],[-121.876,47.817],[-121.866,47.79],[-121.851,47.788],[-121.855,47.782],[-121.821,47.775],[-121.82,47.781],[-121.799,47.784],[-121.778,47.772],[-121.789,47.763],[-121.771,47.749],[-121.746,47.761],[-121.745,47.78],[-121.715,47.777],[-121.703,47.79],[-121.687,47.791],[-121.673,47.773],[-121.65,47.78],[-121.628,47.773],[-121.581,47.775],[-121.556,47.751],[-121.559,47.737],[-121.545,47.728],[-121.548,47.718],[-121.526,47.716],[-121.529,47.708],[-121.518,47.695],[-121.521,47.691],[-121.493,47.684],[-121.468,47.664],[-121.48,47.651],[-121.466,47.606],[-121.435,47.608],[-121.413,47.58],[-121.39,47.578],[-121.363,47.538],[-121.336,47.539],[-121.334,47.552],[-121.274,47.551],[-121.26,47.56],[-121.217,47.57],[-121.18,47.565],[-121.17,47.579],[-121.172,47.59],[-121.152,47.596],[-121.12,47.591],[-121.111,47.6],[-121.12,47.613],[-121.113,47.619],[-121.126,47.628],[-121.134,47.646],[-121.123,47.664],[-121.129,47.676],[-121.122,47.685],[-121.095,47.695],[-121.09,47.703],[-121.067,47.706],[-121.066,47.713],[-121.084,47.723],[-121.087,47.729],[-121.079,47.739],[-121.09,47.746],[-121.094,47.759],[-121.11,47.758],[-121.108,47.766],[-121.121,47.784],[-121.093,47.8],[-121.07,47.83],[-121.078,47.835],[-121.114,47.83],[-121.134,47.843],[-121.154,47.845],[-121.147,47.858],[-121.157,47.882],[-121.166,47.879],[-121.176,47.886],[-121.181,47.898],[-121.171,47.912],[-121.18,47.919],[-121.171,47.925],[-121.173,47.934],[-121.162,47.948],[-121.165,47.956],[-121.149,47.97],[-121.147,47.981],[-121.164,47.987],[-121.178,47.976],[-121.225,47.977],[-121.251,47.958],[-121.273,47.981],[-121.306,47.977],[-121.333,47.965],[-121.349,47.97],[-121.379,47.958],[-121.409,47.979],[-121.437,47.965],[-121.462,47.968],[-121.477,47.984],[-121.471,47.993],[-121.5,48.008],[-121.503,48.016],[-121.515,48.017],[-121.522,48.042],[-121.541,48.059]]]},"properties":{"huc8":"17110009","name":"Skykomish"}},{"type":"Feature","geometry":{"type":"Polygon","coordinates":[[[-122.045,46.324],[-122.062,46.324],[-122.076,46.312],[-122.076,46.302],[-122.1,46.299],[-122.098,46.283],[-122.114,46.268],[-122.114,46.259],[-122.132,46.256],[-122.139,46.242],[-122.152,46.239],[-122.147,46.227],[-122.151,46.217],[-122.174,46.205],[-122.181,46.192],[-122.19,46.19],[-122.218,46.159],[-122.235,46.151],[-122.237,46.137],[-122.285,46.13],[-122.276,46.119],[-122.295,46.101],[-122.305,46.099],[-122.307,46.08],[-122.317,46.071],[-122.352,46.075],[-122.374,46.061],[-122.401,46.062],[-122.422,46.031],[-122.431,46.032],[-122.44,46.044],[-122.464,46.048],[-122.484,46.032],[-122.508,46.029],[-122.537,46.034],[-122.547,46.028],[-122.551,46.008],[-122.579,46.01],[-122.599,46.0],[-122.619,46.002],[-122.631,45.99],[-122.633,45.977],[-122.658,45.965],[-122.682,45.967],[-122.692,45.977],[-122.71,45.972],[-122.736,45.977],[-122.741,45.973],[-122.731,45.954],[-122.736,45.951],[-122.743,45.916],[-122.755,45.901],[-122.754,45.888],[-122.779,45.877],[-122.775,45.859],[-122.779,45.855],[-122.773,45.852],[-122.757,45.862],[-122.743,45.861],[-122.736,45.851],[-122.738,45.835],[-122.728,45.837],[-122.722,45.824],[-122.711,45.826],[-122.713,45.817],[-122.702,45.808],[-122.695,45.811],[-122.688,45.806],[-122.666,45.81],[-122.663,45.817],[-122.652,45.815],[-122.636,45.798],[-122.638,45.788],[-122.632,45.778],[-122.545,45.793],[-122.529,45.8],[-122.537,45.809],[-122.517,45.818],[-122.487,45.804],[-122.464,45.809],[-122.457,45.815],[-122.458,45.827],[-122.397,45.819],[-122.392,45.814],[-122.404,45.812],[-122.406,45.805],[-122.392,45.778],[-122.368,45.758],[-122.373,45.739],[-122.353,45.714],[-122.344,45.71],[-122.311,45.72],[-122.287,45.713],[-122.274,45.717],[-122.233,45.75],[-122.191,45.742],[-122.183,45.758],[-122.171,45.763],[-122.164,45.786],[-122.148,45.796],[-122.132,45.789],[-122.088,45.814],[-122.08,45.827],[-122.093,45.842],[-122.085,45.848],[-122.091,45.868],[-122.083,45.885],[-122.065,45.891],[-122.061,45.905],[-122.072,45.91],[-122.062,45.915],[-122.059,45.931],[-122.041,45.938],[-122.037,45.947],[-122.044,45.959],[-122.021,45.958],[-122.011,45.977],[-121.997,45.98],[-122.0,45.986],[-121.985,46.002],[-121.982,46.015],[-121.955,45.999],[-121.945,46.002],[-121.919,45.992],[-121.897,46.011],[-121.847,46.001],[-121.84,45.994],[-121.786,46.0],[-121.76,46.018],[-121.779,46.03],[-121.781,46.039],[-121.776,46.045],[-121.773,46.081],[-121.762,46.094],[-121.745,46.097],[-121.756,46.114],[-121.772,46.117],[-121.77,46.132],[-121.736,46.142],[-121.728,46.138],[-121.709,46.152],[-121.653,46.155],[-121.649,46.166],[-121.626,46.168],[-121.601,46.187],[-121.569,46.198],[-121.538,46.206],[-121.503,46.205],[-121.539,46.234],[-121.575,46.25],[-121.586,46.262],[-121.6,46.261],[-121.604,46.268],[-121.619,46.271],[-121.624,46.261],[-121.637,46.265],[-121.642,46.275],[-121.666,46.271],[-121.679,46.278],[-121.694,46.272],[-121.691,46.267],[-121.705,46.258],[-121.72,46.256],[-121.736,46.268],[-121.758,46.265],[-121.78,46.285],[-121.817,46.274],[-121.82,46.265],[-121.854,46.262],[-121.867,46.274],[-121.879,46.272],[-121.898,46.289],[-121.93,46.298],[-121.958,46.297],[-121.975,46.283],[-121.995,46.301],[-122.035,46.312],[-122.045,46.324]]]},"properties":{"huc8":"17080002","name":"Lewis"}},{"type":"Feature","geometry":{"type":"MultiPolygon","coordinates":[[[[-122.682,47.099],[-122.693,47.084],[-122.704,47.083],[-122.701,47.088],[-122.71,47.08],[-122.713,47.084],[-122.72,47.081],[-122.721,47.071],[-122.714,47.069],[-122.732,47.069],[-122.728,47.098],[-122.736,47.087],[-122.749,47.086],[-122.75,47.081],[-122.739,47.072],[-122.741,47.06],[-122.764,47.053],[-122.754,47.045],[-122.776,47.036],[-122.759,47.025],[-122.748,47.025],[-122.758,47.012],[-122.752,47.0],[-122.742,46.997],[-122.761,46.985],[-122.754,46.973],[-122.742,46.97],[-122.74,46.961],[-122.756,46.945],[-122.769,46.942],[-122.765,46.935],[-122.746,46.931],[-122.743,46.921],[-122.736,46.926],[-122.714,46.922],[-122.679,46.93],[-122.671,46.92],[-122.675,46.912],[-122.662,46.899],[-122.674,46.893],[-122.675,46.886],[-122.664,46.882],[-122.677,46.876],[-122.672,46.867],[-122.664,46.87],[-122.658,46.859],[-122.641,46.865],[-122.619,46.853],[-122.601,46.855],[-122.594,46.862],[-122.56,46.862],[-122.531,46.832],[-122.52,46.828],[-122.517,46.817],[-122.493,46.813],[-122.498,46.808],[-122.492,46.804],[-122.464,46.799],[-122.458,46.81],[-122.421,46.819],[-122.382,46.809],[-122.376,46.802],[-122.354,46.809],[-122.34,46.805],[-122.342,46.789],[-122.33,46.781],[-122.334,46.774],[-122.322,46.755],[-122.333,46.732],[-122.348,46.723],[-122.348,46.709],[-122.369,46.69],[-122.361,46.683],[-122.37,46.67],[-122.366,46.657],[-122.34,46.661],[-122.328,46.655],[-122.314,46.668],[-122.298,46.665],[-122.273,46.678],[-122.256,46.679],[-122.231,46.66],[-122.214,46.665],[-122.164,46.654],[-122.159,46.648],[-122.177,46.632],[-122.171,46.622],[-122.153,46.631],[-122.126,46.625],[-122.11,46.63],[-122.071,46.597],[-121.999,46.597],[-121.987,46.605],[-121.998,46.622],[-121.986,46.632],[-121.98,46.655],[-121.963,46.658],[-121.957,46.666],[-121.931,46.669],[-121.89,46.652],[-121.881,46.657],[-121.845,46.654],[-121.843,46.664],[-121.829,46.674],[-121.831,46.688],[-121.823,46.694],[-121.841,46.713],[-121.831,46.71],[-121.817,46.721],[-121.777,46.715],[-121.773,46.721],[-121.781,46.734],[-121.776,46.741],[-121.755,46.758],[-121.733,46.758],[-121.733,46.77],[-121.741,46.773],[-121.724,46.782],[-121.71,46.798],[-121.72,46.806],[-121.728,46.833],[-121.758,46.854],[-121.832,46.827],[-121.85,46.81],[-121.926,46.794],[-121.934,46.782],[-121.983,46.798],[-121.995,46.824],[-122.015,46.83],[-122.026,46.865],[-122.062,46.876],[-122.068,46.89],[-122.1,46.898],[-122.104,46.91],[-122.133,46.927],[-122.178,46.936],[-122.238,46.932],[-122.234,46.949],[-122.24,46.957],[-122.233,46.974],[-122.243,46.981],[-122.235,46.998],[-122.225,47.004],[-122.248,47.016],[-122.238,47.026],[-122.238,47.044],[-122.252,47.05],[-122.273,47.046],[-122.251,47.057],[-122.255,47.064],[-122.288,47.068],[-122.316,47.058],[-122.329,47.061],[-122.332,47.053],[-122.332,47.061],[-122.342,47.062],[-122.36,47.041],[-122.383,47.031],[-122.414,47.036],[-122.457,47.061],[-122.467,47.061],[-122.467,47.054],[-122.473,47.054],[-122.495,47.064],[-122.502,47.082],[-122.522,47.087],[-122.539,47.085],[-122.57,47.097],[-122.647,47.091],[-122.682,47.099]]],[[[-122.698,47.088],[-122.701,47.088],[-122.702,47.087],[-122.698,47.088]]]]},"properties":{"huc8":"17110015","name":"Nisqually"}},{"type":"Feature","geometry":{"type":"Polygon","coordinates":[[[-122.483,49.076],[-122.504,49.074],[-122.526,49.065],[-122.54,49.048],[-122.55,49.048],[-122.542,49.03],[-122.562,49.018],[-122.557,49.014],[-122.567,48.995],[-122.56,48.988],[-122.563,48.981],[-122.554,48.978],[-122.562,48.97],[-122.554,48.965],[-122.552,48.944],[-122.558,48.932],[-122.599,48.931],[-122.602,48.923],[-122.601,48.916],[-122.585,48.91],[-122.583,48.9],[-122.574,48.898],[-122.581,48.887],[-122.615,48.883],[-122.632,48.874],[-122.627,48.867],[-122.662,48.863],[-122.667,48.852],[-122.686,48.848],[-122.693,48.817],[-122.707,48.803],[-122.701,48.789],[-122.71,48.787],[-122.715,48.749],[-122.709,48.74],[-122.71,48.728],[-122.698,48.724],[-122.687,48.71],[-122.674,48.708],[-122.68,48.694],[-122.66,48.685],[-122.609,48.64],[-122.465,48.652],[-122.462,48.658],[-122.472,48.68],[-122.461,48.682],[-122.449,48.674],[-122.439,48.68],[-122.417,48.676],[-122.404,48.689],[-122.408,48.695],[-122.393,48.708],[-122.382,48.71],[-122.372,48.706],[-122.353,48.675],[-122.339,48.679],[-122.302,48.662],[-122.306,48.646],[-122.293,48.638],[-122.286,48.624],[-122.276,48.642],[-122.263,48.643],[-122.258,48.635],[-122.249,48.651],[-122.213,48.661],[-122.217,48.671],[-122.246,48.694],[-122.184,48.692],[-122.184,48.682],[-122.156,48.66],[-122.157,48.645],[-122.164,48.639],[-122.163,48.603],[-122.15,48.576],[-122.106,48.572],[-122.1,48.58],[-122.066,48.595],[-122.02,48.583],[-121.952,48.59],[-121.889,48.585],[-121.879,48.596],[-121.845,48.595],[-121.829,48.619],[-121.816,48.615],[-121.807,48.639],[-121.784,48.659],[-121.805,48.672],[-121.845,48.68],[-121.851,48.69],[-121.847,48.697],[-121.854,48.702],[-121.832,48.761],[-121.781,48.808],[-121.764,48.81],[-121.753,48.822],[-121.73,48.825],[-121.714,48.838],[-121.713,48.848],[-121.679,48.853],[-121.634,48.833],[-121.596,48.835],[-121.57,48.82],[-121.55,48.82],[-121.528,48.837],[-121.536,48.85],[-121.528,48.878],[-121.538,48.897],[-121.561,48.909],[-121.564,48.918],[-121.623,48.925],[-121.631,48.955],[-121.679,48.955],[-121.686,48.949],[-121.692,48.956],[-121.694,48.944],[-121.706,48.93],[-121.73,48.925],[-121.79,48.935],[-121.79,48.953],[-121.804,48.968],[-121.872,48.989],[-121.909,48.979],[-121.929,48.984],[-121.935,48.976],[-121.971,48.97],[-121.986,48.972],[-121.987,48.979],[-122.024,48.979],[-122.057,48.997],[-122.06,49.001],[-122.053,49.006],[-122.064,49.015],[-122.043,49.024],[-122.067,49.038],[-122.105,49.023],[-122.127,49.004],[-122.167,48.989],[-122.17,48.984],[-122.162,48.979],[-122.173,48.968],[-122.169,48.962],[-122.179,48.946],[-122.18,48.935],[-122.172,48.929],[-122.177,48.921],[-122.222,48.914],[-122.227,48.9],[-122.249,48.881],[-122.245,48.875],[-122.249,48.862],[-122.287,48.854],[-122.326,48.876],[-122.325,48.893],[-122.34,48.916],[-122.359,48.928],[-122.352,48.945],[-122.365,48.949],[-122.36,48.952],[-122.371,48.957],[-122.368,48.963],[-122.381,48.973],[-122.403,48.976],[-122.382,48.997],[-122.37,49.001],[-122.342,48.991],[-122.325,48.994],[-122.331,49.017],[-122.325,49.043],[-122.353,49.047],[-122.347,49.054],[-122.332,49.05],[-122.334,49.058],[-122.344,49.065],[-122.374,49.07],[-122.38,49.063],[-122.401,49.071],[-122.414,49.051],[-122.483,49.076]]]},"properties":{"huc8":"17110004","name":"Nooksack"}},{"type":"Feature","geometry":{"type":"Polygon","coordinates":[[[-122.316,47.568],[-122.321,47.572],[-122.357,47.566],[-122.36,47.544],[-122.351,47.54],[-122.352,47.527],[-122.332,47.502],[-122.321,47.491],[-122.315,47.496],[-122.305,47.481],[-122.299,47.454],[-122.286,47.453],[-122.281,47.444],[-122.298,47.427],[-122.288,47.419],[-122.296,47.386],[-122.286,47.377],[-122.296,47.349],[-122.311,47.34],[-122.282,47.313],[-122.285,47.297],[-122.274,47.289],[-122.242,47.287],[-122.225,47.279],[-122.177,47.288],[-122.143,47.265],[-122.127,47.268],[-122.107,47.259],[-122.086,47.242],[-122.084,47.251],[-122.075,47.246],[-122.058,47.261],[-122.044,47.258],[-122.043,47.229],[-122.064,47.213],[-122.061,47.19],[-122.013,47.195],[-121.993,47.206],[-121.969,47.199],[-121.962,47.189],[-121.95,47.207],[-121.937,47.205],[-121.933,47.212],[-121.925,47.212],[-121.913,47.209],[-121.911,47.202],[-121.889,47.22],[-121.888,47.229],[-121.859,47.236],[-121.851,47.234],[-121.843,47.219],[-121.822,47.214],[-121.811,47.203],[-121.736,47.203],[-121.729,47.198],[-121.713,47.203],[-121.712,47.191],[-121.698,47.187],[-121.671,47.202],[-121.659,47.202],[-121.651,47.194],[-121.635,47.192],[-121.624,47.18],[-121.581,47.173],[-121.577,47.161],[-121.551,47.145],[-121.535,47.151],[-121.514,47.143],[-121.472,47.148],[-121.456,47.141],[-121.458,47.132],[-121.426,47.129],[-121.41,47.118],[-121.394,47.133],[-121.365,47.142],[-121.335,47.133],[-121.315,47.134],[-121.298,47.149],[-121.318,47.174],[-121.306,47.188],[-121.311,47.208],[-121.365,47.225],[-121.361,47.241],[-121.34,47.247],[-121.332,47.258],[-121.341,47.281],[-121.359,47.285],[-121.361,47.292],[-121.384,47.285],[-121.417,47.293],[-121.42,47.287],[-121.432,47.294],[-121.433,47.305],[-121.444,47.308],[-121.46,47.297],[-121.452,47.288],[-121.464,47.271],[-121.477,47.266],[-121.488,47.28],[-121.503,47.286],[-121.52,47.28],[-121.554,47.284],[-121.561,47.296],[-121.592,47.302],[-121.627,47.288],[-121.644,47.292],[-121.649,47.297],[-121.646,47.305],[-121.671,47.309],[-121.685,47.322],[-121.714,47.323],[-121.719,47.326],[-121.715,47.333],[-121.719,47.341],[-121.756,47.335],[-121.768,47.324],[-121.775,47.327],[-121.82,47.36],[-121.832,47.357],[-121.853,47.383],[-121.883,47.368],[-121.892,47.37],[-121.907,47.35],[-121.905,47.343],[-121.917,47.342],[-121.913,47.33],[-121.948,47.323],[-121.962,47.313],[-121.978,47.314],[-121.986,47.325],[-121.98,47.331],[-121.982,47.337],[-121.962,47.346],[-122.024,47.365],[-122.05,47.403],[-122.102,47.433],[-122.133,47.439],[-122.151,47.43],[-122.169,47.443],[-122.171,47.453],[-122.188,47.455],[-122.186,47.464],[-122.202,47.479],[-122.239,47.483],[-122.255,47.493],[-122.263,47.501],[-122.26,47.507],[-122.27,47.508],[-122.275,47.519],[-122.286,47.523],[-122.298,47.538],[-122.307,47.56],[-122.304,47.567],[-122.316,47.568]]]},"properties":{"huc8":"17110013","name":"Duwamish"}},{"type":"Feature","geometry":{"type":"Polygon","coordinates":[[[-122.28,47.295],[-122.286,47.296],[-122.291,47.269],[-122.285,47.259],[-122.296,47.229],[-122.287,47.226],[-122.281,47.238],[-122.26,47.236],[-122.265,47.215],[-122.277,47.217],[-122.284,47.206],[-122.357,47.23],[-122.357,47.223],[-122.402,47.242],[-122.42,47.258],[-122.421,47.2],[-122.413,47.194],[-122.416,47.183],[-122.407,47.177],[-122.405,47.161],[-122.393,47.158],[-122.399,47.155],[-122.392,47.144],[-122.379,47.15],[-122.378,47.156],[-122.373,47.151],[-122.361,47.154],[-122.349,47.134],[-122.346,47.14],[-122.333,47.136],[-122.328,47.149],[-122.323,47.144],[-122.308,47.149],[-122.289,47.142],[-122.272,47.161],[-122.256,47.161],[-122.264,47.137],[-122.251,47.112],[-122.256,47.103],[-122.276,47.102],[-122.278,47.109],[-122.287,47.099],[-122.293,47.105],[-122.294,47.086],[-122.275,47.08],[-122.25,47.06],[-122.272,47.045],[-122.252,47.05],[-122.237,47.044],[-122.238,47.026],[-122.248,47.016],[-122.225,47.004],[-122.235,46.998],[-122.243,46.981],[-122.233,46.974],[-122.24,46.957],[-122.234,46.949],[-122.238,46.932],[-122.178,46.936],[-122.133,46.927],[-122.104,46.91],[-122.1,46.898],[-122.068,46.89],[-122.062,46.876],[-122.026,46.865],[-122.015,46.83],[-121.995,46.824],[-121.983,46.798],[-121.945,46.784],[-121.932,46.783],[-121.927,46.794],[-121.915,46.793],[-121.902,46.801],[-121.848,46.811],[-121.832,46.827],[-121.773,46.851],[-121.666,46.847],[-121.63,46.856],[-121.618,46.85],[-121.596,46.866],[-121.578,46.859],[-121.573,46.872],[-121.554,46.873],[-121.543,46.865],[-121.523,46.873],[-121.51,46.897],[-121.496,46.909],[-121.456,46.924],[-121.449,46.935],[-121.457,46.964],[-121.442,46.973],[-121.446,46.98],[-121.407,46.998],[-121.407,47.012],[-121.395,47.023],[-121.4,47.034],[-121.374,47.057],[-121.384,47.084],[-121.377,47.09],[-121.403,47.098],[-121.399,47.105],[-121.407,47.117],[-121.426,47.129],[-121.458,47.132],[-121.456,47.141],[-121.472,47.148],[-121.514,47.143],[-121.535,47.151],[-121.551,47.145],[-121.577,47.161],[-121.581,47.173],[-121.624,47.18],[-121.635,47.192],[-121.651,47.194],[-121.659,47.202],[-121.671,47.202],[-121.698,47.187],[-121.712,47.191],[-121.713,47.203],[-121.729,47.198],[-121.736,47.203],[-121.808,47.203],[-121.822,47.214],[-121.843,47.219],[-121.851,47.234],[-121.86,47.236],[-121.888,47.229],[-121.889,47.22],[-121.911,47.202],[-121.913,47.209],[-121.925,47.212],[-121.933,47.212],[-121.937,47.205],[-121.95,47.207],[-121.962,47.189],[-121.969,47.199],[-121.993,47.206],[-122.013,47.195],[-122.059,47.19],[-122.064,47.211],[-122.043,47.229],[-122.044,47.258],[-122.058,47.261],[-122.075,47.246],[-122.084,47.251],[-122.086,47.242],[-122.107,47.259],[-122.127,47.268],[-122.143,47.265],[-122.177,47.288],[-122.225,47.279],[-122.242,47.287],[-122.274,47.289],[-122.28,47.295]]]},"properties":{"huc8":"17110014","name":"Puyallup"}},{"type":"Feature","geometry":{"type":"Polygon","coordinates":[[[-119.929,48.99],[-119.939,48.998],[-119.956,48.984],[-119.973,48.996],[-119.99,48.983],[-120.057,48.971],[-120.071,48.981],[-120.084,48.979],[-120.091,48.987],[-120.108,48.989],[-120.124,48.981],[-120.132,48.988],[-120.158,48.986],[-120.181,48.997],[-120.191,48.989],[-120.193,48.976],[-120.219,48.959],[-120.207,48.95],[-120.216,48.943],[-120.207,48.933],[-120.23,48.923],[-120.225,48.917],[-120.24,48.895],[-120.245,48.891],[-120.291,48.894],[-120.293,48.883],[-120.311,48.882],[-120.317,48.896],[-120.328,48.898],[-120.33,48.905],[-120.361,48.911],[-120.382,48.901],[-120.395,48.888],[-120.427,48.913],[-120.476,48.925],[-120.513,48.91],[-120.528,48.911],[-120.543,48.894],[-120.532,48.883],[-120.541,48.876],[-120.531,48.864],[-120.54,48.85],[-120.53,48.833],[-120.594,48.825],[-120.593,48.82],[-120.604,48.814],[-120.607,48.794],[-120.603,48.79],[-120.61,48.785],[-120.609,48.775],[-120.624,48.775],[-120.624,48.755],[-120.637,48.753],[-120.664,48.733],[-120.655,48.725],[-120.658,48.72],[-120.678,48.717],[-120.678,48.695],[-120.703,48.697],[-120.719,48.675],[-120.717,48.665],[-120.733,48.667],[-120.751,48.659],[-120.755,48.647],[-120.771,48.643],[-120.789,48.625],[-120.782,48.613],[-120.785,48.603],[-120.76,48.583],[-120.731,48.583],[-120.722,48.597],[-120.688,48.575],[-120.686,48.566],[-120.701,48.56],[-120.709,48.542],[-120.702,48.532],[-120.652,48.536],[-120.657,48.507],[-120.628,48.497],[-120.639,48.496],[-120.654,48.481],[-120.632,48.469],[-120.643,48.468],[-120.655,48.453],[-120.669,48.45],[-120.651,48.437],[-120.656,48.43],[-120.645,48.409],[-120.65,48.397],[-120.622,48.399],[-120.563,48.372],[-120.56,48.361],[-120.584,48.338],[-120.589,48.323],[-120.562,48.316],[-120.552,48.307],[-120.512,48.312],[-120.489,48.287],[-120.469,48.277],[-120.468,48.268],[-120.431,48.251],[-120.392,48.243],[-120.384,48.234],[-120.391,48.227],[-120.378,48.218],[-120.354,48.218],[-120.346,48.199],[-120.362,48.172],[-120.361,48.159],[-120.322,48.126],[-120.291,48.13],[-120.214,48.079],[-120.186,48.079],[-120.143,48.065],[-120.132,48.055],[-120.149,48.053],[-120.146,48.037],[-120.09,48.018],[-120.082,48.005],[-120.064,48.003],[-120.033,48.013],[-120.003,48.007],[-119.98,48.018],[-119.958,47.997],[-119.946,47.971],[-119.948,47.96],[-119.939,47.954],[-119.922,47.967],[-119.92,47.979],[-119.933,48.003],[-119.931,48.021],[-119.914,48.024],[-119.905,48.039],[-119.909,48.043],[-119.902,48.049],[-119.921,48.071],[-119.92,48.081],[-119.934,48.091],[-119.933,48.106],[-119.96,48.117],[-119.954,48.132],[-119.925,48.138],[-119.902,48.164],[-119.926,48.207],[-119.934,48.209],[-119.934,48.222],[-119.95,48.25],[-119.929,48.26],[-119.923,48.273],[-119.905,48.277],[-119.904,48.291],[-119.912,48.295],[-119.891,48.305],[-119.887,48.321],[-119.894,48.325],[-119.885,48.334],[-119.908,48.361],[-119.905,48.369],[-119.878,48.384],[-119.891,48.391],[-119.88,48.401],[-119.884,48.414],[-119.873,48.416],[-119.863,48.43],[-119.839,48.434],[-119.866,48.458],[-119.863,48.472],[-119.873,48.498],[-119.896,48.499],[-119.918,48.519],[-119.937,48.516],[-119.935,48.521],[-119.957,48.554],[-119.962,48.583],[-119.924,48.608],[-119.914,48.623],[-119.925,48.637],[-119.923,48.664],[-119.936,48.672],[-119.899,48.707],[-119.921,48.732],[-119.912,48.742],[-119.929,48.752],[-119.92,48.758],[-119.928,48.784],[-119.925,48.795],[-119.932,48.799],[-119.941,48.828],[-119.929,48.837],[-119.939,48.846],[-119.928,48.854],[-119.943,48.87],[-119.939,48.876],[-119.964,48.896],[-119.959,48.914],[-119.971,48.92],[-119.97,48.928],[-119.982,48.941],[-119.956,48.96],[-119.941,48.956],[-119.94,48.963],[-119.923,48.965],[-119.935,48.98],[-119.929,48.99]]]},"properties":{"huc8":"17020008","name":"Methow"}},{"type":"Feature","geometry":{"type":"Polygon","coordinates":[[[-120.862,48.181],[-120.88,48.178],[-120.888,48.166],[-120.931,48.162],[-120.955,48.152],[-120.965,48.134],[-120.947,48.113],[-120.972,48.109],[-120.981,48.095],[-120.999,48.089],[-121.005,48.081],[-121.081,48.062],[-121.097,48.065],[-121.116,48.058],[-121.131,48.044],[-121.153,48.041],[-121.116,48.001],[-121.136,47.983],[-121.147,47.982],[-121.149,47.97],[-121.165,47.956],[-121.162,47.944],[-121.173,47.934],[-121.171,47.925],[-121.18,47.919],[-121.171,47.912],[-121.181,47.898],[-121.167,47.88],[-121.157,47.882],[-121.147,47.858],[-121.154,47.845],[-121.134,47.843],[-121.114,47.83],[-121.078,47.835],[-121.07,47.83],[-121.093,47.8],[-121.121,47.784],[-121.108,47.766],[-121.11,47.758],[-121.094,47.759],[-121.09,47.746],[-121.079,47.739],[-121.087,47.729],[-121.084,47.723],[-121.066,47.713],[-121.067,47.706],[-121.09,47.703],[-121.095,47.695],[-121.122,47.685],[-121.129,47.676],[-121.123,47.664],[-121.134,47.646],[-121.125,47.628],[-121.114,47.622],[-121.12,47.613],[-121.114,47.597],[-121.093,47.586],[-121.086,47.574],[-121.09,47.57],[-121.075,47.551],[-121.023,47.524],[-120.996,47.518],[-120.991,47.511],[-120.995,47.505],[-120.983,47.493],[-120.959,47.484],[-120.947,47.472],[-120.953,47.462],[-120.931,47.458],[-120.923,47.448],[-120.924,47.434],[-120.918,47.429],[-120.892,47.428],[-120.872,47.415],[-120.862,47.421],[-120.843,47.412],[-120.829,47.424],[-120.803,47.423],[-120.783,47.4],[-120.734,47.394],[-120.727,47.388],[-120.721,47.37],[-120.701,47.365],[-120.665,47.343],[-120.619,47.345],[-120.583,47.339],[-120.57,47.322],[-120.571,47.311],[-120.559,47.307],[-120.532,47.315],[-120.531,47.334],[-120.526,47.333],[-120.516,47.32],[-120.497,47.318],[-120.488,47.308],[-120.476,47.307],[-120.438,47.283],[-120.432,47.284],[-120.432,47.299],[-120.423,47.301],[-120.419,47.319],[-120.406,47.329],[-120.404,47.353],[-120.455,47.405],[-120.438,47.421],[-120.44,47.431],[-120.433,47.438],[-120.404,47.442],[-120.391,47.438],[-120.366,47.443],[-120.351,47.456],[-120.325,47.455],[-120.341,47.462],[-120.344,47.47],[-120.339,47.498],[-120.356,47.541],[-120.372,47.546],[-120.365,47.555],[-120.411,47.594],[-120.449,47.597],[-120.456,47.603],[-120.458,47.639],[-120.448,47.645],[-120.45,47.649],[-120.464,47.657],[-120.469,47.669],[-120.482,47.674],[-120.501,47.702],[-120.514,47.705],[-120.514,47.715],[-120.526,47.727],[-120.518,47.734],[-120.527,47.742],[-120.526,47.756],[-120.534,47.769],[-120.578,47.805],[-120.587,47.826],[-120.607,47.844],[-120.628,47.899],[-120.638,47.905],[-120.647,47.922],[-120.657,47.923],[-120.665,47.932],[-120.656,47.943],[-120.638,47.94],[-120.632,47.946],[-120.638,47.962],[-120.656,47.953],[-120.668,47.955],[-120.675,47.967],[-120.667,47.972],[-120.668,47.981],[-120.682,47.997],[-120.69,47.997],[-120.727,48.022],[-120.731,48.038],[-120.746,48.053],[-120.749,48.079],[-120.771,48.096],[-120.793,48.103],[-120.809,48.129],[-120.804,48.138],[-120.814,48.15],[-120.841,48.156],[-120.862,48.181]]]},"properties":{"huc8":"17020011","name":"Wenatchee"}},{"type":"Feature","geometry":{"type":"Polygon","coordinates":[[[-121.969,47.818],[-122.032,47.821],[-122.013,47.777],[-122.04,47.779],[-122.051,47.763],[-122.038,47.761],[-122.026,47.739],[-122.032,47.735],[-122.023,47.728],[-122.035,47.713],[-122.004,47.679],[-122.018,47.653],[-122.009,47.642],[-122.011,47.631],[-121.999,47.624],[-122.0,47.613],[-121.982,47.598],[-121.992,47.589],[-121.993,47.58],[-121.98,47.574],[-121.985,47.57],[-121.966,47.551],[-121.95,47.543],[-121.94,47.547],[-121.93,47.538],[-121.93,47.524],[-121.956,47.507],[-121.955,47.498],[-121.944,47.494],[-121.947,47.488],[-121.935,47.478],[-121.927,47.478],[-121.931,47.463],[-121.922,47.452],[-121.892,47.454],[-121.873,47.434],[-121.858,47.428],[-121.836,47.424],[-121.827,47.437],[-121.804,47.441],[-121.791,47.426],[-121.773,47.42],[-121.762,47.425],[-121.752,47.414],[-121.72,47.43],[-121.703,47.428],[-121.681,47.415],[-121.678,47.406],[-121.628,47.401],[-121.625,47.389],[-121.59,47.372],[-121.568,47.371],[-121.559,47.363],[-121.542,47.363],[-121.536,47.354],[-121.521,47.357],[-121.503,47.349],[-121.466,47.352],[-121.461,47.361],[-121.465,47.369],[-121.438,47.372],[-121.44,47.386],[-121.426,47.39],[-121.434,47.399],[-121.423,47.406],[-121.427,47.421],[-121.385,47.434],[-121.379,47.454],[-121.364,47.465],[-121.348,47.465],[-121.339,47.476],[-121.314,47.478],[-121.292,47.502],[-121.292,47.513],[-121.283,47.515],[-121.279,47.523],[-121.262,47.524],[-121.235,47.545],[-121.232,47.562],[-121.24,47.564],[-121.274,47.551],[-121.334,47.552],[-121.336,47.539],[-121.363,47.538],[-121.39,47.578],[-121.413,47.58],[-121.435,47.608],[-121.466,47.606],[-121.48,47.651],[-121.468,47.664],[-121.493,47.684],[-121.521,47.691],[-121.518,47.695],[-121.529,47.708],[-121.526,47.716],[-121.548,47.718],[-121.545,47.728],[-121.559,47.737],[-121.556,47.751],[-121.581,47.775],[-121.628,47.773],[-121.65,47.78],[-121.673,47.773],[-121.687,47.791],[-121.703,47.79],[-121.715,47.777],[-121.745,47.78],[-121.746,47.761],[-121.771,47.749],[-121.789,47.763],[-121.778,47.772],[-121.799,47.784],[-121.82,47.781],[-121.821,47.775],[-121.855,47.782],[-121.851,47.788],[-121.866,47.79],[-121.876,47.817],[-121.901,47.8],[-121.932,47.82],[-121.953,47.814],[-121.969,47.818]]]},"properties":{"huc8":"17110010","name":"Snoqualmie"}},{"type":"Feature","geometry":{"type":"Polygon","coordinates":[[[-121.115,47.597],[-121.12,47.591],[-121.152,47.596],[-121.172,47.59],[-121.17,47.579],[-121.18,47.565],[-121.217,47.57],[-121.229,47.566],[-121.243,47.536],[-121.292,47.513],[-121.292,47.502],[-121.312,47.479],[-121.339,47.476],[-121.348,47.465],[-121.364,47.465],[-121.379,47.454],[-121.385,47.434],[-121.427,47.421],[-121.423,47.406],[-121.434,47.399],[-121.426,47.39],[-121.44,47.386],[-121.438,47.372],[-121.459,47.373],[-121.466,47.368],[-121.464,47.354],[-121.438,47.344],[-121.431,47.334],[-121.445,47.31],[-121.433,47.305],[-121.428,47.289],[-121.42,47.287],[-121.417,47.293],[-121.372,47.285],[-121.362,47.292],[-121.359,47.285],[-121.341,47.281],[-121.332,47.257],[-121.34,47.247],[-121.361,47.241],[-121.366,47.227],[-121.311,47.208],[-121.306,47.188],[-121.318,47.174],[-121.298,47.149],[-121.302,47.141],[-121.279,47.133],[-121.264,47.137],[-121.239,47.118],[-121.184,47.119],[-121.178,47.104],[-121.158,47.106],[-121.14,47.092],[-121.124,47.091],[-121.076,47.073],[-121.071,47.059],[-121.056,47.054],[-121.047,47.039],[-121.039,47.037],[-121.032,47.017],[-120.97,46.997],[-120.961,46.989],[-120.965,46.978],[-120.922,46.952],[-120.929,46.939],[-120.92,46.933],[-120.925,46.927],[-120.909,46.911],[-120.928,46.889],[-120.922,46.887],[-120.924,46.876],[-120.913,46.873],[-120.914,46.855],[-120.905,46.846],[-120.796,46.789],[-120.746,46.775],[-120.743,46.78],[-120.717,46.774],[-120.712,46.767],[-120.717,46.758],[-120.655,46.728],[-120.64,46.714],[-120.626,46.712],[-120.618,46.696],[-120.607,46.695],[-120.597,46.683],[-120.58,46.683],[-120.584,46.669],[-120.572,46.663],[-120.561,46.631],[-120.544,46.634],[-120.521,46.629],[-120.508,46.637],[-120.466,46.633],[-120.345,46.646],[-120.299,46.629],[-120.262,46.626],[-120.164,46.601],[-120.112,46.599],[-120.077,46.59],[-120.068,46.596],[-120.054,46.639],[-120.062,46.649],[-120.109,46.665],[-120.165,46.67],[-120.172,46.682],[-120.204,46.695],[-120.176,46.726],[-120.137,46.751],[-120.138,46.764],[-120.159,46.799],[-120.206,46.818],[-120.197,46.824],[-120.185,46.86],[-120.217,46.867],[-120.212,46.887],[-120.216,46.89],[-120.242,46.888],[-120.229,46.902],[-120.229,46.916],[-120.208,46.926],[-120.2,46.938],[-120.204,46.954],[-120.198,46.961],[-120.216,46.969],[-120.208,46.973],[-120.203,47.013],[-120.225,47.022],[-120.228,47.049],[-120.238,47.052],[-120.238,47.062],[-120.221,47.076],[-120.231,47.089],[-120.224,47.097],[-120.228,47.104],[-120.243,47.107],[-120.237,47.112],[-120.241,47.128],[-120.256,47.134],[-120.254,47.14],[-120.275,47.166],[-120.289,47.21],[-120.303,47.216],[-120.324,47.214],[-120.323,47.223],[-120.334,47.233],[-120.371,47.238],[-120.404,47.272],[-120.427,47.274],[-120.46,47.3],[-120.516,47.32],[-120.522,47.332],[-120.531,47.334],[-120.532,47.315],[-120.548,47.312],[-120.548,47.307],[-120.565,47.308],[-120.583,47.339],[-120.619,47.345],[-120.665,47.343],[-120.701,47.365],[-120.721,47.37],[-120.727,47.388],[-120.734,47.394],[-120.783,47.4],[-120.803,47.423],[-120.829,47.424],[-120.843,47.412],[-120.862,47.421],[-120.872,47.415],[-120.892,47.428],[-120.918,47.429],[-120.924,47.434],[-120.923,47.448],[-120.931,47.458],[-120.953,47.462],[-120.947,47.472],[-120.959,47.484],[-120.983,47.493],[-120.995,47.505],[-120.991,47.511],[-120.996,47.518],[-121.023,47.524],[-121.075,47.551],[-121.09,47.57],[-121.086,47.574],[-121.093,47.586],[-121.115,47.597]]]},"properties":{"huc8":"17030001","name":"Upper Yakima"}},{"type":"Feature","geometry":{"type":"Polygon","coordinates":[[[-123.415,48.546],[-123.426,48.551],[-123.431,48.544],[-123.413,48.537],[-123.41,48.522],[-123.426,48.518],[-123.422,48.511],[-123.431,48.507],[-123.442,48.487],[-123.449,48.487],[-123.463,48.491],[-123.454,48.509],[-123.467,48.525],[-123.5,48.535],[-123.505,48.545],[-123.527,48.541],[-123.532,48.492],[-123.54,48.484],[-123.526,48.467],[-123.533,48.465],[-123.531,48.461],[-123.517,48.448],[-123.538,48.443],[-123.572,48.457],[-123.574,48.444],[-123.599,48.433],[-123.583,48.427],[-123.587,48.417],[-123.573,48.404],[-123.578,48.398],[-123.57,48.387],[-123.58,48.376],[-123.58,48.366],[-123.6,48.355],[-123.564,48.339],[-123.568,48.32],[-123.58,48.324],[-123.587,48.31],[-123.572,48.147],[-123.564,48.133],[-123.57,48.129],[-123.567,48.103],[-123.571,48.095],[-123.593,48.083],[-123.626,48.088],[-123.685,48.085],[-123.734,48.104],[-123.751,48.102],[-123.735,48.085],[-123.74,48.079],[-123.737,48.055],[-123.679,48.044],[-123.682,48.026],[-123.676,48.015],[-123.682,48.004],[-123.697,48.005],[-123.734,47.986],[-123.751,47.984],[-123.758,47.972],[-123.741,47.962],[-123.733,47.942],[-123.692,47.93],[-123.703,47.919],[-123.717,47.916],[-123.718,47.907],[-123.67,47.891],[-123.652,47.896],[-123.629,47.886],[-123.614,47.87],[-123.596,47.87],[-123.579,47.861],[-123.568,47.844],[-123.573,47.836],[-123.569,47.828],[-123.59,47.806],[-123.576,47.784],[-123.596,47.782],[-123.59,47.756],[-123.598,47.751],[-123.592,47.746],[-123.595,47.74],[-123.556,47.732],[-123.55,47.706],[-123.539,47.697],[-123.524,47.702],[-123.49,47.683],[-123.475,47.685],[-123.473,47.675],[-123.459,47.667],[-123.442,47.673],[-123.42,47.667],[-123.409,47.673],[-123.401,47.691],[-123.382,47.699],[-123.38,47.709],[-123.357,47.714],[-123.347,47.724],[-123.368,47.752],[-123.342,47.779],[-123.37,47.801],[-123.344,47.805],[-123.331,47.817],[-123.331,47.825],[-123.296,47.828],[-123.274,47.82],[-123.207,47.812],[-123.2,47.808],[-123.205,47.801],[-123.221,47.796],[-123.22,47.791],[-123.2,47.776],[-123.151,47.765],[-123.134,47.779],[-123.139,47.798],[-123.13,47.805],[-123.137,47.81],[-123.132,47.822],[-123.108,47.829],[-123.096,47.839],[-123.068,47.84],[-123.06,47.846],[-123.062,47.873],[-123.048,47.893],[-122.998,47.909],[-122.98,47.904],[-122.974,47.917],[-122.957,47.913],[-122.947,47.919],[-122.934,47.906],[-122.915,47.91],[-122.906,47.9],[-122.879,47.922],[-122.862,47.922],[-122.862,47.931],[-122.853,47.938],[-122.865,47.951],[-122.854,47.967],[-122.856,47.984],[-122.842,47.991],[-122.827,47.987],[-122.822,48.002],[-122.803,48.004],[-122.817,48.022],[-122.811,48.048],[-122.831,48.063],[-122.814,48.076],[-122.833,48.088],[-122.831,48.099],[-122.796,48.121],[-122.767,48.118],[-122.769,48.14],[-122.754,48.144],[-122.78,48.18],[-122.834,48.209],[-122.863,48.243],[-122.867,48.264],[-122.863,48.37],[-123.167,48.444],[-123.24,48.467],[-123.303,48.507],[-123.345,48.493],[-123.354,48.504],[-123.372,48.5],[-123.386,48.536],[-123.415,48.546]]]},"properties":{"huc8":"17110020","name":"Dungeness-Elwha"}},{"type":"Feature","geometry":{"type":"Polygon","coordinates":[[[-121.525,46.873],[-121.543,46.865],[-121.554,46.873],[-121.573,46.872],[-121.578,46.859],[-121.596,46.866],[-121.618,46.85],[-121.63,46.856],[-121.666,46.847],[-121.754,46.851],[-121.728,46.833],[-121.711,46.796],[-121.741,46.773],[-121.733,46.77],[-121.733,46.758],[-121.755,46.758],[-121.776,46.741],[-121.781,46.734],[-121.773,46.721],[-121.777,46.715],[-121.817,46.721],[-121.831,46.71],[-121.841,46.713],[-121.823,46.694],[-121.831,46.688],[-121.829,46.674],[-121.843,46.664],[-121.845,46.654],[-121.881,46.657],[-121.89,46.652],[-121.944,46.67],[-121.98,46.655],[-121.986,46.632],[-121.998,46.622],[-121.987,46.605],[-121.998,46.597],[-122.041,46.593],[-122.071,46.597],[-122.075,46.584],[-122.061,46.572],[-122.058,46.551],[-122.064,46.532],[-122.091,46.52],[-122.086,46.507],[-122.096,46.506],[-122.104,46.496],[-122.108,46.48],[-122.103,46.474],[-122.093,46.475],[-122.084,46.464],[-122.099,46.461],[-122.09,46.447],[-122.105,46.43],[-122.092,46.419],[-122.101,46.409],[-122.102,46.388],[-122.129,46.384],[-122.123,46.368],[-122.074,46.364],[-122.064,46.355],[-122.062,46.34],[-122.044,46.339],[-122.048,46.327],[-122.035,46.312],[-121.995,46.301],[-121.975,46.283],[-121.958,46.297],[-121.93,46.298],[-121.898,46.289],[-121.879,46.272],[-121.867,46.274],[-121.854,46.262],[-121.82,46.265],[-121.817,46.274],[-121.78,46.285],[-121.758,46.265],[-121.736,46.268],[-121.72,46.256],[-121.694,46.263],[-121.694,46.272],[-121.686,46.276],[-121.655,46.27],[-121.645,46.275],[-121.634,46.263],[-121.622,46.262],[-121.618,46.271],[-121.604,46.268],[-121.6,46.261],[-121.586,46.262],[-121.575,46.25],[-121.539,46.234],[-121.509,46.208],[-121.49,46.202],[-121.488,46.21],[-121.47,46.22],[-121.475,46.239],[-121.467,46.286],[-121.489,46.311],[-121.485,46.32],[-121.495,46.322],[-121.501,46.342],[-121.513,46.354],[-121.501,46.36],[-121.494,46.383],[-121.475,46.395],[-121.466,46.396],[-121.448,46.385],[-121.443,46.391],[-121.397,46.388],[-121.389,46.394],[-121.386,46.411],[-121.408,46.43],[-121.412,46.46],[-121.436,46.476],[-121.423,46.493],[-121.45,46.504],[-121.456,46.514],[-121.452,46.537],[-121.428,46.54],[-121.417,46.548],[-121.419,46.555],[-121.412,46.558],[-121.423,46.57],[-121.407,46.581],[-121.402,46.593],[-121.408,46.602],[-121.387,46.62],[-121.386,46.635],[-121.398,46.641],[-121.395,46.646],[-121.417,46.653],[-121.413,46.676],[-121.399,46.688],[-121.377,46.686],[-121.38,46.702],[-121.353,46.712],[-121.369,46.726],[-121.407,46.727],[-121.413,46.736],[-121.429,46.739],[-121.425,46.757],[-121.442,46.758],[-121.439,46.763],[-121.455,46.78],[-121.454,46.789],[-121.444,46.794],[-121.456,46.802],[-121.458,46.812],[-121.474,46.82],[-121.471,46.829],[-121.484,46.835],[-121.496,46.863],[-121.525,46.873]]]},"properties":{"huc8":"17080004","name":"Upper Cowlitz"}}]}