{"type":"FeatureCollection","features":[{"type":"Feature","properties":{"zone":"East Slopes Central","id":3030},"geometry":{"type":"Polygon","coordinates":[[[-121.018,47.626],[-120.901,47.651],[-120.866,47.699],[-120.868,47.727],[-120.894,47.81],[-120.917,47.836],[-121.029,47.878],[-121.112,47.857],[-121.119,48.036],[-120.989,48.063],[-120.933,48.118],[-120.91,48.234],[-120.755,48.373],[-120.685,48.337],[-120.628,48.26],[-120.613,48.225],[-120.596,48.211],[-120.566,48.199],[-120.54,48.182],[-120.497,48.133],[-120.504,48.11],[-120.471,48.071],[-120.446,48.056],[-120.384,48.034],[-120.337,48.025],[-120.206,47.982],[-120.193,47.941],[-120.204,47.923],[-120.202,47.889],[-120.148,47.863],[-120.086,47.852],[-120.129,47.818],[-120.145,47.78],[-120.219,47.751],[-120.236,47.732],[-120.228,47.697],[-120.274,47.579],[-120.332,47.51],[-120.356,47.471],[-120.346,47.429],[-120.321,47.396],[-120.269,47.366],[-120.202,47.291],[-120.183,47.247],[-120.195,47.151],[-120.245,47.09],[-120.369,47.093],[-120.477,47.126],[-120.619,47.162],[-120.691,47.162],[-120.736,47.125],[-120.744,47.075],[-120.739,46.996],[-120.986,47.079],[-121.276,47.19],[-121.227,47.217],[-121.206,47.246],[-121.202,47.27],[-121.229,47.317],[-121.242,47.35],[-121.239,47.419],[-121.259,47.448],[-121.178,47.504],[-121.149,47.506],[-121.122,47.533],[-121.119,47.565],[-121.142,47.608],[-121.018,47.626]]]}},{"type":"Feature","properties":{"zone":"East Slopes North","id":3029},"geometry":{"type":"Polygon","coordinates":[[[-120.923,48.441],[-120.964,48.502],[-121.013,48.542],[-121.044,48.596],[-121.054,48.647],[-120.987,48.691],[-120.977,48.704],[-121.022,48.73],[-121.037,48.77],[-121.041,48.802],[-121.034,48.86],[-121.079,49.001],[-120.089,48.999],[-120.059,48.915],[-120.009,48.824],[-119.887,48.71],[-119.827,48.644],[-119.829,48.515],[-119.851,48.411],[-119.872,48.375],[-119.937,48.35],[-120.022,48.34],[-120.072,48.307],[-120.112,48.254],[-120.12,48.232],[-120.119,48.206],[-120.025,48.125],[-120.007,48.08],[-119.947,48.039],[-119.937,48.024],[-119.949,47.961],[-120.022,47.86],[-120.086,47.852],[-120.148,47.863],[-120.202,47.889],[-120.204,47.923],[-120.193,47.941],[-120.206,47.982],[-120.337,48.025],[-120.384,48.034],[-120.446,48.056],[-120.471,48.071],[-120.504,48.11],[-120.497,48.133],[-120.538,48.18],[-120.566,48.199],[-120.596,48.211],[-120.613,48.225],[-120.628,48.26],[-120.685,48.337],[-120.755,48.373],[-120.817,48.386],[-120.923,48.441]]]}},{"type":"Feature","properties":{"zone":"East Slopes South","id":3031},"geometry":{"type":"Polygon","coordinates":[[[-121.275,47.19],[-120.985,47.079],[-120.738,46.996],[-120.729,46.772],[-120.736,46.759],[-120.794,46.741],[-120.826,46.719],[-120.855,46.679],[-120.848,46.527],[-120.911,46.413],[-120.983,46.132],[-121.159,46.016],[-121.511,45.891],[-121.42,46.176],[-121.401,46.264],[-121.332,46.388],[-121.34,46.561],[-121.289,46.634],[-121.347,46.722],[-121.458,46.842],[-121.456,46.892],[-121.437,46.917],[-121.405,46.941],[-121.297,47.143],[-121.275,47.19]]]}},{"type":"Feature","properties":{"zone":"Olympics","id":3020},"geometry":{"type":"Polygon","coordinates":[[[-123.438,48.026],[-123.237,47.975],[-123.124,47.938],[-123.024,47.899],[-122.994,47.85],[-122.986,47.807],[-122.992,47.761],[-123.062,47.649],[-123.224,47.497],[-123.294,47.491],[-123.463,47.533],[-123.592,47.588],[-123.799,47.703],[-123.895,47.824],[-123.909,47.89],[-123.902,47.926],[-123.798,48.041],[-123.774,48.06],[-123.747,48.066],[-123.552,48.048],[-123.438,48.026]]]}},{"type":"Feature","properties":{"zone":"Snoqualmie Pass","id":3028},"geometry":{"type":"Polygon","coordinates":[[[-121.492,47.285],[-121.697,47.352],[-121.715,47.477],[-121.549,47.548],[-121.358,47.508],[-121.259,47.448],[-121.239,47.419],[-121.238,47.38],[-121.243,47.35],[-121.202,47.27],[-121.206,47.246],[-121.227,47.217],[-121.275,47.19],[-121.492,47.285]]]}},{"type":"Feature","properties":{"zone":"Stevens Pass","id":3024},"geometry":{"type":"Polygon","coordinates":[[[-120.965,47.637],[-121.208,47.6],[-121.237,47.607],[-121.293,47.667],[-121.325,47.719],[-121.3,47.779],[-121.258,47.812],[-121.029,47.879],[-120.916,47.836],[-120.894,47.81],[-120.868,47.727],[-120.866,47.699],[-120.901,47.651],[-120.965,47.637]]]}},{"type":"Feature","properties":{"zone":"West Slopes Central","id":3022},"geometry":{"type":"Polygon","coordinates":[[[-120.923,48.441],[-120.817,48.386],[-120.755,48.373],[-120.91,48.234],[-120.933,48.118],[-120.99,48.063],[-121.119,48.035],[-121.113,47.857],[-121.258,47.812],[-121.3,47.778],[-121.324,47.72],[-121.293,47.667],[-121.237,47.607],[-121.208,47.6],[-121.142,47.608],[-121.119,47.565],[-121.122,47.533],[-121.149,47.506],[-121.178,47.504],[-121.26,47.448],[-121.358,47.508],[-121.539,47.548],[-121.563,47.544],[-121.715,47.477],[-121.739,47.48],[-121.757,47.489],[-121.764,47.501],[-121.763,47.513],[-121.662,47.76],[-121.642,47.843],[-121.65,47.91],[-121.694,47.973],[-121.823,48.054],[-121.83,48.376],[-121.906,48.543],[-121.741,48.53],[-121.554,48.477],[-121.452,48.52],[-121.374,48.52],[-121.305,48.532],[-121.269,48.524],[-121.227,48.468],[-120.974,48.409],[-120.928,48.425],[-120.923,48.441]]]}},{"type":"Feature","properties":{"zone":"West Slopes North","id":3021},"geometry":{"type":"Polygon","coordinates":[[[-121.997,48.636],[-122.037,48.705],[-121.99,49.0],[-121.079,49.001],[-121.033,48.86],[-121.042,48.802],[-121.037,48.77],[-121.021,48.729],[-120.977,48.704],[-120.987,48.692],[-121.054,48.647],[-121.044,48.596],[-121.013,48.541],[-120.963,48.502],[-120.923,48.441],[-120.928,48.425],[-120.975,48.409],[-121.132,48.443],[-121.229,48.47],[-121.26,48.516],[-121.28,48.53],[-121.308,48.531],[-121.373,48.521],[-121.453,48.52],[-121.554,48.477],[-121.741,48.53],[-121.905,48.543],[-121.997,48.636]]]}},{"type":"Feature","properties":{"zone":"West Slopes South","id":3023},"geometry":{"type":"Polygon","coordinates":[[[-121.925,47.027],[-121.85,47.118],[-121.746,47.219],[-121.697,47.353],[-121.492,47.285],[-121.276,47.19],[-121.404,46.942],[-121.437,46.917],[-121.456,46.892],[-121.459,46.842],[-121.347,46.722],[-121.29,46.634],[-121.34,46.561],[-121.332,46.389],[-121.401,46.264],[-121.42,46.176],[-121.511,45.891],[-121.841,45.813],[-122.071,45.786],[-122.164,45.815],[-122.214,45.853],[-122.326,46.211],[-122.313,46.337],[-122.061,46.717],[-121.925,47.027]]]}}]}